[{"OBJECT_NAME":"STARLINK-5859","OBJECT_ID":"2023-037B","EPOCH":"2026-03-09T22:35:44.252160","MEAN_MOTION":14.98330181,"ECCENTRICITY":0.00029692,"INCLINATION":69.9982,"RA_OF_ASC_NODE":303.8736,"ARG_OF_PERICENTER":266.2403,"MEAN_ANOMALY":93.8417,"EPHEMERIS_TYPE":0,"CLASSIFICATION_TYPE":"U","NORAD_CAT_ID":55915,"ELEMENT_SET_NO":999,"REV_AT_EPOCH":16421,"BSTAR":-6.877978e-6,"MEAN_MOTION_DOT":-1.75e-6,"MEAN_MOTION_DDOT":0},{"OBJECT_NAME":"RAPIDEYE 5","OBJECT_ID":"2008-040B","EPOCH":"2026-03-09T15:17:22.403904","MEAN_MOTION":15.02179038,"ECCENTRICITY":0.0014834,"INCLINATION":97.3944,"RA_OF_ASC_NODE":91.3825,"ARG_OF_PERICENTER":86.9831,"MEAN_ANOMALY":273.3091,"EPHEMERIS_TYPE":0,"CLASSIFICATION_TYPE":"U","NORAD_CAT_ID":33313,"ELEMENT_SET_NO":999,"REV_AT_EPOCH":95055,"BSTAR":0.00014028,"MEAN_MOTION_DOT":1.794e-5,"MEAN_MOTION_DDOT":0}]
